[Satellite]
VERSION=1.1
NAME=TIROS N [P]
NICKNAME=TIROS N [P]
TLE1=1 11060U 78096A   17186.18384421 -.00000003  00000-0  20423-4 0  9991
TLE2=2 11060  98.8930 236.2142 0009529 291.9869  68.0293 14.18161787215534
